     2.11           N: GPS NAV DATA                         RINEX VERSION / TYPE
teqc  2019Feb25                         20221121 12:28:32UTCPGM / RUN BY / DATE
OSX ker:10.11.6|Core i5|gcc 4.3 -m64|OSX ker:10.10+|=+      COMMENT
    1.2107D-08  0.0000D+00 -1.1921D-07  0.0000D+00          ION ALPHA
    9.4208D+04  0.0000D+00 -1.9661D+05  0.0000D+00          ION BETA
   -1.862645149231D-09-7.105427357601D-15   405504     1554 DELTA-UTC: A0,A1,T,W
                                                            END OF HEADER
26 09 10 20  6  0  0.0 7.368624210358D-06-1.477928890381D-12 0.000000000000D+00
    1.400000000000D+01-7.203125000000D+01 4.126243303167D-09-6.824603540702D-03
   -3.652647137642D-06 1.967170066200D-02 3.382563591003D-06 5.153611522675D+03
    1.944000000000D+05-1.061707735062D-07-8.736485721812D-01 2.011656761169D-07
    9.919434605981D-01 3.320312500000D+02 1.035408364480D+00-8.382134863848D-09
   -2.835832409517D-10 1.000000000000D+00 1.554000000000D+03 0.000000000000D+00
    2.000000000000D+00 0.000000000000D+00-6.053596735001D-09 1.400000000000D+01
    1.901880000000D+05 4.000000000000D+00
14 09 10 20  6  0  0.0-3.535579890013D-05 5.002220859751D-12 0.000000000000D+00
    1.030000000000D+02-8.540625000000D+01 4.112314151534D-09 2.807798320916D+00
   -4.429370164871D-06 5.037787370384D-03 2.648681402206D-06 5.153661956787D+03
    1.944000000000D+05-2.607703208923D-08-8.913975486630D-01-1.247972249985D-07
    9.875425524369D-01 3.410937500000D+02-2.136339431181D+00-7.993190091308D-09
   -2.950122884460D-10 1.000000000000D+00 1.554000000000D+03 0.000000000000D+00
    2.800000000000D+00 0.000000000000D+00-8.847564458847D-09 1.030000000000D+02
    1.929480000000D+05 4.000000000000D+00
27 09 10 20  8  0  0.0 9.287055581808D-05 3.296918293927D-12 0.000000000000D+00
    1.020000000000D+02-1.072187500000D+02 3.858017844786D-09-2.331758275252D+00
   -5.323439836502D-06 2.143618569244D-02 9.907409548759D-06 5.153733720779D+03
    2.016000000000D+05 2.533197402954D-07 5.751876141872D-02 2.030283212662D-07
    9.764547159555D-01 1.868750000000D+02-1.532772670637D+00-7.324233655159D-09
    1.367914121971D-10 1.000000000000D+00 1.554000000000D+03 0.000000000000D+00
    2.000000000000D+00 0.000000000000D+00-4.190951585770D-09 1.020000000000D+02
    1.944180000000D+05 4.000000000000D+00
18 09 10 20  8  0  0.0 2.150284126401D-05 2.728484105319D-12 0.000000000000D+00
    3.200000000000D+01 1.123437500000D+02 5.145571476563D-09-5.758487229593D-01
    6.115064024925D-06 1.091737847310D-02 4.271045327187D-06 5.153639076233D+03
    2.016000000000D+05 4.470348358154D-08-1.954245870482D+00 1.825392246246D-07
    9.401433673735D-01 2.868750000000D+02-2.365375096967D+00-8.650360322229D-09
    3.460858444360D-10 1.000000000000D+00 1.554000000000D+03 0.000000000000D+00
    2.000000000000D+00 0.000000000000D+00-1.071020960808D-08 3.200000000000D+01
    1.944180000000D+05 4.000000000000D+00
15 09 10 20  8  0  0.0-3.202939406037D-04-2.273736754432D-13 0.000000000000D+00
    1.070000000000D+02-6.381250000000D+01 4.976278710554D-09-2.201761230090D+00
   -3.226101398468D-06 1.855946844444D-03 1.553446054459D-06 5.153673662186D+03
    2.016000000000D+05-7.078051567078D-08-9.485434137263D-01 3.725290298462D-08
    9.553546520474D-01 3.499375000000D+02-5.024321381896D-01-8.523569326590D-09
   -1.339341503235D-10 1.000000000000D+00 1.554000000000D+03 0.000000000000D+00
    2.800000000000D+00 0.000000000000D+00-9.778887033463D-09 1.070000000000D+02
    1.944180000000D+05 4.000000000000D+00
28 09 10 20  8  0  0.0-2.583395689726D-05 1.136868377216D-13 0.000000000000D+00
    8.000000000000D+00 1.856250000000D+01 4.571976155444D-09-1.352241009054D+00
    1.033768057823D-06 1.519725541584D-02 7.385388016701D-06 5.153646966934D+03
    2.016000000000D+05 3.110617399216D-07 1.192510790301D+00 3.278255462646D-07
    9.676437944309D-01 2.409375000000D+02-2.014536867512D+00-7.916758336190D-09
    3.839445642608D-10 1.000000000000D+00 1.554000000000D+03 0.000000000000D+00
    2.000000000000D+00 0.000000000000D+00-1.024454832077D-08 8.000000000000D+00
    1.944180000000D+05 4.000000000000D+00
 9 09 10 20  8  0  0.0 8.399505168200D-05 2.046363078989D-12 0.000000000000D+00
    1.000000000000D+01-9.971875000000D+01 4.078027009051D-09 7.056845779552D-01
   -5.239620804787D-06 2.061765035614D-02 1.064129173756D-05 5.153631229401D+03
    2.016000000000D+05-2.868473529816D-07 8.186196402796D-02-5.774199962616D-08
    9.784114654391D-01 1.903750000000D+02 1.517388406141D+00-8.071764792832D-09
   -3.250135381184D-11 1.000000000000D+00 1.554000000000D+03 0.000000000000D+00
    2.000000000000D+00 0.000000000000D+00-5.587935447693D-09 1.000000000000D+01
    1.944180000000D+05 4.000000000000D+00
26 09 10 20  8  0  0.0 7.358379662037D-06-1.477928890381D-12 0.000000000000D+00
    1.900000000000D+01-6.903125000000D+01 4.224461680071D-09 1.043444133991D+00
   -3.591179847717D-06 1.967036759015D-02 3.064051270485D-06 5.153608306885D+03
    2.016000000000D+05-2.365559339523D-07-8.737084786766D-01 1.098960638046D-07
    9.919410540979D-01 3.436875000000D+02 1.035356550848D+00-8.344633301757D-09
   -3.493002640438D-10 1.000000000000D+00 1.554000000000D+03 0.000000000000D+00
    2.000000000000D+00 0.000000000000D+00-6.053596735001D-09 1.900000000000D+01
    1.944180000000D+05 4.000000000000D+00
22 09 10 20  8  0  0.0 1.882989890873D-04-6.821210263297D-13 0.000000000000D+00
    2.100000000000D+01 1.129687500000D+02 5.046995941925D-09-1.603979336246D+00
    6.029382348061D-06 5.325454985723D-03 3.647059202194D-06 5.153666542053D+03
    2.016000000000D+05 7.450580596924D-08-1.948865016405D+00 8.568167686462D-08
    9.378135693909D-01 2.949375000000D+02-1.878551144830D+00-8.469995666460D-09
    3.514432104489D-10 1.000000000000D+00 1.554000000000D+03 0.000000000000D+00
    2.000000000000D+00 0.000000000000D+00-1.769512891769D-08 2.100000000000D+01
    1.944180000000D+05 4.000000000000D+00
14 09 10 20  8  0  0.0-3.531994298100D-05 5.002220859751D-12 0.000000000000D+00
    1.040000000000D+02-8.084375000000D+01 4.145886978548D-09-2.425265296869D+00
   -4.170462489128D-06 5.037582363002D-03 2.484768629074D-06 5.153662218094D+03
    2.016000000000D+05 1.452863216400D-07-8.914561809567D-01-1.303851604462D-08
    9.875407530477D-01 3.439375000000D+02-2.136275880557D+00-8.057835641198D-09
   -1.410773050075D-10 1.000000000000D+00 1.554000000000D+03 0.000000000000D+00
    2.800000000000D+00 0.000000000000D+00-8.847564458847D-09 1.040000000000D+02
    1.944180000000D+05 4.000000000000D+00
11 09 10 20  8  0  0.0-2.513546496630D-05-1.818989403546D-12 0.000000000000D+00
    7.200000000000D+01 1.900000000000D+01 5.904531661730D-09 1.448065844429D+00
    1.003965735435D-06 1.006524730474D-02 1.091696321964D-05 5.153709459305D+03
    2.016000000000D+05-1.378357410431D-07 3.033448184230D+00 7.823109626770D-08
    8.894487413617D-01 1.327812500000D+02 7.423762252582D-01-8.650717479963D-09
   -5.307363930154D-10 1.000000000000D+00 1.554000000000D+03 0.000000000000D+00
    2.000000000000D+00 0.000000000000D+00-1.164153218269D-08 7.200000000000D+01
    1.949580000000D+05 4.000000000000D+00
17 09 10 20  7 59 44.0 9.471457451582D-05 3.410605131648D-12 0.000000000000D+00
    1.500000000000D+01-2.571875000000D+01 4.734840082237D-09-1.920119909387D+00
   -1.195818185806D-06 4.717502626590D-03 6.334856152534D-06 5.153736213684D+03
    2.015840000000D+05-3.166496753693D-08 2.227671024857D+00-8.754432201386D-08
    9.597343449706D-01 2.583750000000D+02-2.650651489680D+00-7.962117368433D-09
   -3.725155167665D-10 1.000000000000D+00 1.554000000000D+03 0.000000000000D+00
    2.000000000000D+00 0.000000000000D+00-1.024454832077D-08 1.500000000000D+01
    1.953780000000D+05 4.000000000000D+00
12 09 10 20  8  0  0.0-2.018883824348D-04 5.456968210638D-12 0.000000000000D+00
    1.160000000000D+02 1.328125000000D+01 4.579476467862D-09 1.654932413069D+00
    6.835907697678D-07 3.058494301513D-03 7.534399628639D-06 5.153543352127D+03
    2.016000000000D+05 7.450580596924D-08 1.167341649014D+00 1.117587089539D-08
    9.680843536734D-01 2.356250000000D+02-5.814511111098D-01-7.901757711354D-09
    3.985880313628D-10 1.000000000000D+00 1.554000000000D+03 0.000000000000D+00
    2.800000000000D+00 0.000000000000D+00-1.164153218269D-08 1.160000000000D+02
    1.954680000000D+05 4.000000000000D+00
12 09 10 20  7 59 44.0-2.018893137574D-04 5.456968210638D-12 0.000000000000D+00
    0.000000000000D+00 1.328125000000D+01 4.579476467862D-09 1.652598947551D+00
    6.835907697678D-07 3.058494185098D-03 7.534399628639D-06 5.153543354034D+03
    2.015840000000D+05 7.450580596924D-08 1.167341782139D+00 1.117587089539D-08
    9.680843463588D-01 2.356250000000D+02-5.814515470594D-01-7.901757711354D-09
    3.985880313628D-10 1.000000000000D+00 1.554000000000D+03 0.000000000000D+00
    2.000000000000D+00 0.000000000000D+00-1.164153218269D-08 0.000000000000D+00
    1.955760000000D+05 4.000000000000D+00
30 09 10 20  8  0  0.0 1.863306388259D-04 3.069544618484D-12 0.000000000000D+00
    6.500000000000D+01 1.968750000000D+01 4.948420407287D-09-8.768457489222D-01
    1.087784767151D-06 1.193004916422D-02 7.968395948410D-06 5.153656539917D+03
    2.016000000000D+05-1.434236764908D-07 1.117226958839D+00 1.192092895508D-07
    9.532692754917D-01 2.229687500000D+02 1.464254984509D+00-8.300702900451D-09
    4.496615873529D-10 1.000000000000D+00 1.554000000000D+03 0.000000000000D+00
    2.000000000000D+00 0.000000000000D+00-7.916241884232D-09 6.500000000000D+01
    1.986780000000D+05 4.000000000000D+00
